{
  "type": "FeatureCollection",
  "_source": "OpenStreetMap / Nominatim (relation boundaries), simplified to ~0.002 deg (~200m) via polygon_threshold. Fetched 2026-09-18. Data \u00a9 OpenStreetMap contributors, ODbL 1.0 - http://osm.org/copyright",
  "features": [
    {
      "type": "Feature",
      "properties": {
        "county": "fulton",
        "name": "Fulton County",
        "center": [
          34.0581147,
          -84.2961712
        ]
      },
      "geometry": {
        "type": "Polygon",
        "coordinates": [
          [
            [
              -84.8509759,
              33.5112155
            ],
            [
              -84.627734,
              33.511038
            ],
            [
              -84.621031,
              33.510713
            ],
            [
              -84.620879,
              33.503291
            ],
            [
              -84.60954,
              33.502511
            ],
            [
              -84.60567,
              33.511071
            ],
            [
              -84.59968,
              33.512521
            ],
            [
              -84.594739,
              33.518704
            ],
            [
              -84.4585284,
              33.5510211
            ],
            [
              -84.4574709,
              33.6488498
            ],
            [
              -84.4527236,
              33.6488129
            ],
            [
              -84.4528619,
              33.6407061
            ],
            [
              -84.4481681,
              33.6407051
            ],
            [
              -84.4466376,
              33.6487505
            ],
            [
              -84.3501296,
              33.6479187
            ],
            [
              -84.347411,
              33.968147
            ],
            [
              -84.346161,
              33.966035
            ],
            [
              -84.336678,
              33.970866
            ],
            [
              -84.280497,
              33.95602
            ],
            [
              -84.2582129,
              33.9682066
            ],
            [
              -84.2626928,
              33.973414
            ],
            [
              -84.2633143,
              33.9859771
            ],
            [
              -84.25407,
              33.986422
            ],
            [
              -84.248316,
              33.998262
            ],
            [
              -84.227316,
              34.00406
            ],
            [
              -84.212919,
              34.0039
            ],
            [
              -84.201302,
              33.995947
            ],
            [
              -84.204227,
              33.989983
            ],
            [
              -84.192282,
              33.991217
            ],
            [
              -84.18073,
              33.999363
            ],
            [
              -84.175286,
              34.0206
            ],
            [
              -84.169166,
              34.028344
            ],
            [
              -84.157127,
              34.032426
            ],
            [
              -84.142722,
              34.029717
            ],
            [
              -84.123465,
              34.033489
            ],
            [
              -84.097688,
              34.0506574
            ],
            [
              -84.1171484,
              34.051167
            ],
            [
              -84.1328981,
              34.0569624
            ],
            [
              -84.1434812,
              34.0551983
            ],
            [
              -84.1630882,
              34.0664648
            ],
            [
              -84.1778496,
              34.0699203
            ],
            [
              -84.185618,
              34.082585
            ],
            [
              -84.205993,
              34.090693
            ],
            [
              -84.213755,
              34.099143
            ],
            [
              -84.221162,
              34.100394
            ],
            [
              -84.23026,
              34.096605
            ],
            [
              -84.235405,
              34.101346
            ],
            [
              -84.2540269,
              34.104267
            ],
            [
              -84.258934,
              34.109539
            ],
            [
              -84.2587585,
              34.1859714
            ],
            [
              -84.3283834,
              34.1861911
            ],
            [
              -84.342736,
              34.17616
            ],
            [
              -84.352249,
              34.176779
            ],
            [
              -84.360533,
              34.162319
            ],
            [
              -84.356825,
              34.154682
            ],
            [
              -84.36027,
              34.151969
            ],
            [
              -84.358849,
              34.140904
            ],
            [
              -84.361929,
              34.124046
            ],
            [
              -84.379295,
              34.118763
            ],
            [
              -84.387856,
              34.119648
            ],
            [
              -84.399849,
              34.109574
            ],
            [
              -84.418428,
              34.109043
            ],
            [
              -84.419134,
              34.055166
            ],
            [
              -84.410837,
              34.04927
            ],
            [
              -84.411646,
              34.043089
            ],
            [
              -84.407154,
              34.036316
            ],
            [
              -84.402385,
              34.035249
            ],
            [
              -84.404055,
              34.032452
            ],
            [
              -84.398241,
              34.022117
            ],
            [
              -84.400687,
              34.008095
            ],
            [
              -84.396815,
              34.008111
            ],
            [
              -84.3929976,
              33.9996728
            ],
            [
              -84.38758,
              33.996947
            ],
            [
              -84.389801,
              33.995084
            ],
            [
              -84.376029,
              33.98876
            ],
            [
              -84.375727,
              33.977976
            ],
            [
              -84.378716,
              33.972649
            ],
            [
              -84.384287,
              33.971075
            ],
            [
              -84.383058,
              33.963714
            ],
            [
              -84.390032,
              33.956488
            ],
            [
              -84.417746,
              33.932056
            ],
            [
              -84.436727,
              33.922619
            ],
            [
              -84.446931,
              33.911263
            ],
            [
              -84.441744,
              33.900217
            ],
            [
              -84.443726,
              33.89491
            ],
            [
              -84.441416,
              33.890151
            ],
            [
              -84.444191,
              33.887416
            ],
            [
              -84.443229,
              33.878702
            ],
            [
              -84.454869,
              33.866662
            ],
            [
              -84.454229,
              33.858904
            ],
            [
              -84.459829,
              33.853204
            ],
            [
              -84.460324,
              33.838948
            ],
            [
              -84.455829,
              33.825804
            ],
            [
              -84.47133,
              33.825905
            ],
            [
              -84.495126,
              33.808542
            ],
            [
              -84.510732,
              33.792806
            ],
            [
              -84.530773,
              33.782341
            ],
            [
              -84.538843,
              33.770279
            ],
            [
              -84.5783425,
              33.7435168
            ],
            [
              -84.586092,
              33.729449
            ],
            [
              -84.599452,
              33.726255
            ],
            [
              -84.607479,
              33.713274
            ],
            [
              -84.63171,
              33.700976
            ],
            [
              -84.632138,
              33.688373
            ],
            [
              -84.640505,
              33.68395
            ],
            [
              -84.652036,
              33.684345
            ],
            [
              -84.651933,
              33.667909
            ],
            [
              -84.657316,
              33.658633
            ],
            [
              -84.710534,
              33.646409
            ],
            [
              -84.730034,
              33.63651
            ],
            [
              -84.737715,
              33.623611
            ],
            [
              -84.741775,
              33.623763
            ],
            [
              -84.748835,
              33.63181
            ],
            [
              -84.752735,
              33.63021
            ],
            [
              -84.763097,
              33.614211
            ],
            [
              -84.775591,
              33.609662
            ],
            [
              -84.796536,
              33.595592
            ],
            [
              -84.805655,
              33.58642
            ],
            [
              -84.810192,
              33.571627
            ],
            [
              -84.824445,
              33.563377
            ],
            [
              -84.8326,
              33.547061
            ],
            [
              -84.815057,
              33.521194
            ],
            [
              -84.827611,
              33.513329
            ],
            [
              -84.844286,
              33.514691
            ],
            [
              -84.8509759,
              33.5112155
            ]
          ]
        ]
      }
    },
    {
      "type": "Feature",
      "properties": {
        "county": "dekalb",
        "name": "DeKalb County",
        "center": [
          33.7575613,
          -84.2186508
        ]
      },
      "geometry": {
        "type": "Polygon",
        "coordinates": [
          [
            [
              -84.3501296,
              33.6479187
            ],
            [
              -84.245771,
              33.646922
            ],
            [
              -84.245453,
              33.63073
            ],
            [
              -84.224235,
              33.630657
            ],
            [
              -84.223952,
              33.646572
            ],
            [
              -84.170176,
              33.645903
            ],
            [
              -84.173126,
              33.64097
            ],
            [
              -84.161589,
              33.63775
            ],
            [
              -84.158612,
              33.644481
            ],
            [
              -84.154806,
              33.645822
            ],
            [
              -84.151155,
              33.638773
            ],
            [
              -84.13832,
              33.637669
            ],
            [
              -84.14049,
              33.631474
            ],
            [
              -84.12922,
              33.63137
            ],
            [
              -84.128011,
              33.626767
            ],
            [
              -84.115524,
              33.618889
            ],
            [
              -84.115791,
              33.614666
            ],
            [
              -84.056614,
              33.726608
            ],
            [
              -84.023713,
              33.752808
            ],
            [
              -84.040313,
              33.757708
            ],
            [
              -84.058204,
              33.772767
            ],
            [
              -84.075914,
              33.777507
            ],
            [
              -84.0978269,
              33.7991575
            ],
            [
              -84.113415,
              33.807505
            ],
            [
              -84.134295,
              33.834518
            ],
            [
              -84.1572304,
              33.8527553
            ],
            [
              -84.1725764,
              33.8574192
            ],
            [
              -84.179521,
              33.8642997
            ],
            [
              -84.203519,
              33.8721567
            ],
            [
              -84.2311283,
              33.9016008
            ],
            [
              -84.2554145,
              33.9141631
            ],
            [
              -84.269257,
              33.940146
            ],
            [
              -84.269953,
              33.9459566
            ],
            [
              -84.265868,
              33.947925
            ],
            [
              -84.27147,
              33.955892
            ],
            [
              -84.274989,
              33.954224
            ],
            [
              -84.277195,
              33.957827
            ],
            [
              -84.280497,
              33.95602
            ],
            [
              -84.300602,
              33.959423
            ],
            [
              -84.31848,
              33.966985
            ],
            [
              -84.3412314,
              33.9705442
            ],
            [
              -84.346161,
              33.966035
            ],
            [
              -84.347411,
              33.968147
            ],
            [
              -84.347819,
              33.963288
            ],
            [
              -84.3501296,
              33.6479187
            ]
          ]
        ]
      }
    },
    {
      "type": "Feature",
      "properties": {
        "county": "forsyth",
        "name": "Forsyth County",
        "center": [
          34.235309,
          -84.1335644
        ]
      },
      "geometry": {
        "type": "Polygon",
        "coordinates": [
          [
            [
              -84.258934,
              34.109539
            ],
            [
              -84.2540269,
              34.104267
            ],
            [
              -84.235405,
              34.101346
            ],
            [
              -84.230541,
              34.09665
            ],
            [
              -84.221162,
              34.100394
            ],
            [
              -84.213755,
              34.099143
            ],
            [
              -84.205993,
              34.090693
            ],
            [
              -84.185618,
              34.082585
            ],
            [
              -84.1778496,
              34.0699203
            ],
            [
              -84.1630882,
              34.0664648
            ],
            [
              -84.1434812,
              34.0551983
            ],
            [
              -84.1328981,
              34.0569624
            ],
            [
              -84.1171484,
              34.051167
            ],
            [
              -84.097688,
              34.0506574
            ],
            [
              -84.106893,
              34.055295
            ],
            [
              -84.117863,
              34.067439
            ],
            [
              -84.113309,
              34.076627
            ],
            [
              -84.110111,
              34.098045
            ],
            [
              -84.101626,
              34.105083
            ],
            [
              -84.101615,
              34.116433
            ],
            [
              -84.093345,
              34.126245
            ],
            [
              -84.094805,
              34.132223
            ],
            [
              -84.085913,
              34.141801
            ],
            [
              -84.08615,
              34.147692
            ],
            [
              -84.07615,
              34.158105
            ],
            [
              -84.075386,
              34.16294
            ],
            [
              -84.06243,
              34.168201
            ],
            [
              -84.058907,
              34.18198
            ],
            [
              -84.048714,
              34.191223
            ],
            [
              -84.029922,
              34.195328
            ],
            [
              -84.011459,
              34.191021
            ],
            [
              -84.002739,
              34.195824
            ],
            [
              -83.994392,
              34.193726
            ],
            [
              -83.989059,
              34.195732
            ],
            [
              -83.978352,
              34.213597
            ],
            [
              -83.966327,
              34.216644
            ],
            [
              -83.964568,
              34.221545
            ],
            [
              -83.970254,
              34.22274
            ],
            [
              -83.971809,
              34.22813
            ],
            [
              -83.949356,
              34.240505
            ],
            [
              -83.95359,
              34.253234
            ],
            [
              -83.950484,
              34.261877
            ],
            [
              -83.953318,
              34.269045
            ],
            [
              -83.926818,
              34.280063
            ],
            [
              -83.925567,
              34.286369
            ],
            [
              -83.928312,
              34.289787
            ],
            [
              -83.931808,
              34.29073
            ],
            [
              -83.932228,
              34.284992
            ],
            [
              -83.934593,
              34.286961
            ],
            [
              -83.936286,
              34.2947
            ],
            [
              -83.93151,
              34.298053
            ],
            [
              -83.939567,
              34.29877
            ],
            [
              -83.941001,
              34.29179
            ],
            [
              -83.946861,
              34.297786
            ],
            [
              -83.942619,
              34.302024
            ],
            [
              -83.953353,
              34.317626
            ],
            [
              -83.95066,
              34.323051
            ],
            [
              -83.945755,
              34.324222
            ],
            [
              -83.945571,
              34.329399
            ],
            [
              -83.957077,
              34.334011
            ],
            [
              -84.2581403,
              34.3351877
            ],
            [
              -84.258934,
              34.109539
            ]
          ]
        ]
      }
    },
    {
      "type": "Feature",
      "properties": {
        "county": "gwinnett",
        "name": "Gwinnett County",
        "center": [
          33.9566869,
          -84.0227467
        ]
      },
      "geometry": {
        "type": "Polygon",
        "coordinates": [
          [
            [
              -84.277093,
              33.957614
            ],
            [
              -84.274989,
              33.954224
            ],
            [
              -84.27147,
              33.955892
            ],
            [
              -84.265868,
              33.947925
            ],
            [
              -84.270466,
              33.944008
            ],
            [
              -84.2570233,
              33.9154923
            ],
            [
              -84.2311283,
              33.9016008
            ],
            [
              -84.203519,
              33.8721567
            ],
            [
              -84.179521,
              33.8642997
            ],
            [
              -84.1725764,
              33.8574192
            ],
            [
              -84.1572304,
              33.8527553
            ],
            [
              -84.134295,
              33.834518
            ],
            [
              -84.113415,
              33.807505
            ],
            [
              -84.0978269,
              33.7991575
            ],
            [
              -84.075914,
              33.777507
            ],
            [
              -84.058204,
              33.772767
            ],
            [
              -84.040313,
              33.757708
            ],
            [
              -84.023713,
              33.752808
            ],
            [
              -83.799104,
              33.929844
            ],
            [
              -83.805896,
              33.937371
            ],
            [
              -83.804932,
              33.942231
            ],
            [
              -83.813379,
              33.949131
            ],
            [
              -83.813691,
              33.954491
            ],
            [
              -83.824424,
              33.9644
            ],
            [
              -83.831947,
              33.96629
            ],
            [
              -83.838266,
              33.983606
            ],
            [
              -83.869115,
              34.004316
            ],
            [
              -83.817682,
              34.127493
            ],
            [
              -83.86803,
              34.098281
            ],
            [
              -84.062841,
              34.167873
            ],
            [
              -84.073255,
              34.164315
            ],
            [
              -84.085809,
              34.148314
            ],
            [
              -84.085913,
              34.141801
            ],
            [
              -84.094805,
              34.132223
            ],
            [
              -84.093456,
              34.1259
            ],
            [
              -84.101615,
              34.116433
            ],
            [
              -84.101913,
              34.104554
            ],
            [
              -84.110111,
              34.098045
            ],
            [
              -84.113309,
              34.076627
            ],
            [
              -84.117863,
              34.067439
            ],
            [
              -84.098205,
              34.049609
            ],
            [
              -84.123465,
              34.033489
            ],
            [
              -84.142722,
              34.029717
            ],
            [
              -84.157127,
              34.032426
            ],
            [
              -84.169166,
              34.028344
            ],
            [
              -84.175286,
              34.0206
            ],
            [
              -84.18073,
              33.999363
            ],
            [
              -84.192282,
              33.991217
            ],
            [
              -84.204227,
              33.989983
            ],
            [
              -84.201302,
              33.995947
            ],
            [
              -84.212919,
              34.0039
            ],
            [
              -84.227316,
              34.00406
            ],
            [
              -84.248316,
              33.998262
            ],
            [
              -84.25407,
              33.986422
            ],
            [
              -84.2633143,
              33.9859771
            ],
            [
              -84.2626928,
              33.973414
            ],
            [
              -84.2582129,
              33.9682066
            ],
            [
              -84.277093,
              33.957614
            ]
          ]
        ]
      }
    },
    {
      "type": "Feature",
      "properties": {
        "county": "cobb",
        "name": "Cobb County",
        "center": [
          33.9373948,
          -84.5732006
        ]
      },
      "geometry": {
        "type": "Polygon",
        "coordinates": [
          [
            [
              -84.739636,
              33.947602
            ],
            [
              -84.723236,
              33.947353
            ],
            [
              -84.724139,
              33.80617
            ],
            [
              -84.6208211,
              33.8046671
            ],
            [
              -84.6204652,
              33.8012307
            ],
            [
              -84.5790372,
              33.742886
            ],
            [
              -84.538843,
              33.770279
            ],
            [
              -84.530773,
              33.782341
            ],
            [
              -84.510732,
              33.792806
            ],
            [
              -84.495126,
              33.808542
            ],
            [
              -84.48333,
              33.814705
            ],
            [
              -84.47133,
              33.825905
            ],
            [
              -84.46843,
              33.827404
            ],
            [
              -84.457629,
              33.824504
            ],
            [
              -84.455829,
              33.825804
            ],
            [
              -84.455138,
              33.828806
            ],
            [
              -84.460324,
              33.838948
            ],
            [
              -84.459829,
              33.853204
            ],
            [
              -84.454229,
              33.858904
            ],
            [
              -84.454869,
              33.866662
            ],
            [
              -84.443229,
              33.878702
            ],
            [
              -84.444191,
              33.887416
            ],
            [
              -84.441416,
              33.890151
            ],
            [
              -84.443726,
              33.89491
            ],
            [
              -84.441744,
              33.900217
            ],
            [
              -84.447299,
              33.907899
            ],
            [
              -84.447032,
              33.911065
            ],
            [
              -84.439439,
              33.917134
            ],
            [
              -84.436727,
              33.922619
            ],
            [
              -84.417427,
              33.932299
            ],
            [
              -84.383253,
              33.963394
            ],
            [
              -84.384553,
              33.970582
            ],
            [
              -84.378716,
              33.972649
            ],
            [
              -84.376124,
              33.976551
            ],
            [
              -84.374743,
              33.986448
            ],
            [
              -84.378085,
              33.99047
            ],
            [
              -84.389801,
              33.995084
            ],
            [
              -84.38758,
              33.996947
            ],
            [
              -84.3929976,
              33.9996728
            ],
            [
              -84.396815,
              34.008111
            ],
            [
              -84.400687,
              34.008095
            ],
            [
              -84.401235,
              34.014396
            ],
            [
              -84.398131,
              34.016574
            ],
            [
              -84.398279,
              34.02227
            ],
            [
              -84.401356,
              34.024324
            ],
            [
              -84.401332,
              34.030016
            ],
            [
              -84.404055,
              34.032452
            ],
            [
              -84.402627,
              34.035659
            ],
            [
              -84.407154,
              34.036316
            ],
            [
              -84.411646,
              34.043089
            ],
            [
              -84.410837,
              34.04927
            ],
            [
              -84.41835,
              34.052903
            ],
            [
              -84.418927,
              34.073298
            ],
            [
              -84.511831,
              34.075198
            ],
            [
              -84.511831,
              34.078598
            ],
            [
              -84.515431,
              34.078698
            ],
            [
              -84.515531,
              34.075298
            ],
            [
              -84.613546,
              34.077216
            ],
            [
              -84.615553,
              34.077359
            ],
            [
              -84.615422,
              34.081664
            ],
            [
              -84.624215,
              34.081779
            ],
            [
              -84.62493,
              34.077399
            ],
            [
              -84.737836,
              34.079399
            ],
            [
              -84.739636,
              33.947602
            ]
          ]
        ]
      }
    },
    {
      "type": "Feature",
      "properties": {
        "county": "cherokee",
        "name": "Cherokee County",
        "center": [
          34.2391265,
          -84.4720272
        ]
      },
      "geometry": {
        "type": "Polygon",
        "coordinates": [
          [
            [
              -84.659241,
              34.0780142
            ],
            [
              -84.62493,
              34.077399
            ],
            [
              -84.624215,
              34.081779
            ],
            [
              -84.615422,
              34.081664
            ],
            [
              -84.615553,
              34.077359
            ],
            [
              -84.613546,
              34.077216
            ],
            [
              -84.515531,
              34.075298
            ],
            [
              -84.515431,
              34.078698
            ],
            [
              -84.511831,
              34.078598
            ],
            [
              -84.511831,
              34.075198
            ],
            [
              -84.418927,
              34.073298
            ],
            [
              -84.418428,
              34.109043
            ],
            [
              -84.399849,
              34.109574
            ],
            [
              -84.387856,
              34.119648
            ],
            [
              -84.379295,
              34.118763
            ],
            [
              -84.361398,
              34.124782
            ],
            [
              -84.359723,
              34.131789
            ],
            [
              -84.361438,
              34.136521
            ],
            [
              -84.358849,
              34.140904
            ],
            [
              -84.36027,
              34.151969
            ],
            [
              -84.35682,
              34.15483
            ],
            [
              -84.360533,
              34.162319
            ],
            [
              -84.352249,
              34.176779
            ],
            [
              -84.342736,
              34.17616
            ],
            [
              -84.3283834,
              34.1861911
            ],
            [
              -84.2587585,
              34.1859714
            ],
            [
              -84.2576672,
              34.3810724
            ],
            [
              -84.3920703,
              34.3806116
            ],
            [
              -84.3920568,
              34.3734056
            ],
            [
              -84.400791,
              34.3733602
            ],
            [
              -84.4007831,
              34.3805622
            ],
            [
              -84.4244962,
              34.380529
            ],
            [
              -84.4245856,
              34.387935
            ],
            [
              -84.442058,
              34.3881293
            ],
            [
              -84.4422203,
              34.3803465
            ],
            [
              -84.582626,
              34.3813302
            ],
            [
              -84.5828271,
              34.4123188
            ],
            [
              -84.6535636,
              34.4124788
            ],
            [
              -84.6541675,
              34.3552316
            ],
            [
              -84.6445314,
              34.3551466
            ],
            [
              -84.644912,
              34.3468745
            ],
            [
              -84.6541535,
              34.347011
            ],
            [
              -84.653978,
              34.2094384
            ],
            [
              -84.6575246,
              34.2094718
            ],
            [
              -84.659241,
              34.0780142
            ]
          ]
        ]
      }
    },
    {
      "type": "Feature",
      "properties": {
        "county": "hall",
        "name": "Hall County",
        "center": [
          34.2905901,
          -83.8194028
        ]
      },
      "geometry": {
        "type": "Polygon",
        "coordinates": [
          [
            [
              -84.062841,
              34.167873
            ],
            [
              -83.86803,
              34.098281
            ],
            [
              -83.819026,
              34.126589
            ],
            [
              -83.6198902,
              34.2953318
            ],
            [
              -83.6249953,
              34.3012353
            ],
            [
              -83.624764,
              34.3060015
            ],
            [
              -83.637777,
              34.3102568
            ],
            [
              -83.649025,
              34.320984
            ],
            [
              -83.64769,
              34.334732
            ],
            [
              -83.651436,
              34.349056
            ],
            [
              -83.657036,
              34.354919
            ],
            [
              -83.663589,
              34.357201
            ],
            [
              -83.66967,
              34.366302
            ],
            [
              -83.665771,
              34.36879
            ],
            [
              -83.660088,
              34.378963
            ],
            [
              -83.659981,
              34.390739
            ],
            [
              -83.6552548,
              34.4003753
            ],
            [
              -83.6455586,
              34.4063911
            ],
            [
              -83.6412262,
              34.4146124
            ],
            [
              -83.6231371,
              34.419261
            ],
            [
              -83.61529,
              34.4317
            ],
            [
              -83.666415,
              34.503602
            ],
            [
              -83.7776494,
              34.5046865
            ],
            [
              -83.7775245,
              34.5137034
            ],
            [
              -83.7884587,
              34.5138706
            ],
            [
              -83.7884656,
              34.504795
            ],
            [
              -83.8431621,
              34.5054679
            ],
            [
              -83.8433467,
              34.496291
            ],
            [
              -83.8765128,
              34.4687494
            ],
            [
              -83.8766973,
              34.4598994
            ],
            [
              -83.8877748,
              34.4599099
            ],
            [
              -83.887726,
              34.4688591
            ],
            [
              -83.9207306,
              34.4691163
            ],
            [
              -83.9208097,
              34.460091
            ],
            [
              -83.9100222,
              34.4599015
            ],
            [
              -83.9099839,
              34.4507734
            ],
            [
              -83.9210784,
              34.4508311
            ],
            [
              -83.9736407,
              34.4285028
            ],
            [
              -83.9713163,
              34.4225019
            ],
            [
              -83.975926,
              34.41874
            ],
            [
              -83.9826206,
              34.4179304
            ],
            [
              -83.984818,
              34.411603
            ],
            [
              -83.978398,
              34.411219
            ],
            [
              -83.971555,
              34.402524
            ],
            [
              -83.972768,
              34.398999
            ],
            [
              -83.976472,
              34.397946
            ],
            [
              -83.978534,
              34.39076
            ],
            [
              -83.984365,
              34.383631
            ],
            [
              -83.977231,
              34.379479
            ],
            [
              -83.9802,
              34.375866
            ],
            [
              -83.980977,
              34.369201
            ],
            [
              -83.976133,
              34.363062
            ],
            [
              -83.981433,
              34.357829
            ],
            [
              -83.976238,
              34.356576
            ],
            [
              -83.966853,
              34.339629
            ],
            [
              -83.960715,
              34.343119
            ],
            [
              -83.956443,
              34.332935
            ],
            [
              -83.945571,
              34.329399
            ],
            [
              -83.945755,
              34.324222
            ],
            [
              -83.95066,
              34.323051
            ],
            [
              -83.953353,
              34.317626
            ],
            [
              -83.942619,
              34.302024
            ],
            [
              -83.946861,
              34.297786
            ],
            [
              -83.941001,
              34.29179
            ],
            [
              -83.939567,
              34.29877
            ],
            [
              -83.93151,
              34.298053
            ],
            [
              -83.936286,
              34.2947
            ],
            [
              -83.934593,
              34.286961
            ],
            [
              -83.932228,
              34.284992
            ],
            [
              -83.931808,
              34.29073
            ],
            [
              -83.928312,
              34.289787
            ],
            [
              -83.925567,
              34.286369
            ],
            [
              -83.926818,
              34.280063
            ],
            [
              -83.953318,
              34.269045
            ],
            [
              -83.950484,
              34.261877
            ],
            [
              -83.95359,
              34.253234
            ],
            [
              -83.95008,
              34.247863
            ],
            [
              -83.949356,
              34.240505
            ],
            [
              -83.971809,
              34.22813
            ],
            [
              -83.970254,
              34.22274
            ],
            [
              -83.964568,
              34.221545
            ],
            [
              -83.966327,
              34.216644
            ],
            [
              -83.978352,
              34.213597
            ],
            [
              -83.989059,
              34.195732
            ],
            [
              -83.994392,
              34.193726
            ],
            [
              -84.002739,
              34.195824
            ],
            [
              -84.011459,
              34.191021
            ],
            [
              -84.029922,
              34.195328
            ],
            [
              -84.048714,
              34.191223
            ],
            [
              -84.058907,
              34.18198
            ],
            [
              -84.062841,
              34.167873
            ]
          ]
        ]
      }
    },
    {
      "type": "Feature",
      "properties": {
        "county": "dawson",
        "name": "Dawson County",
        "center": [
          34.4077085,
          -84.1356771
        ]
      },
      "geometry": {
        "type": "Polygon",
        "coordinates": [
          [
            [
              -84.3465125,
              34.5661359
            ],
            [
              -84.3456664,
              34.5481246
            ],
            [
              -84.319745,
              34.4679012
            ],
            [
              -84.2569713,
              34.4673038
            ],
            [
              -84.2581403,
              34.3351877
            ],
            [
              -83.957077,
              34.334011
            ],
            [
              -83.960172,
              34.342713
            ],
            [
              -83.966853,
              34.339629
            ],
            [
              -83.976238,
              34.356576
            ],
            [
              -83.981433,
              34.357829
            ],
            [
              -83.976133,
              34.363062
            ],
            [
              -83.980977,
              34.369201
            ],
            [
              -83.9802,
              34.375866
            ],
            [
              -83.977231,
              34.379479
            ],
            [
              -83.984365,
              34.383631
            ],
            [
              -83.978534,
              34.39076
            ],
            [
              -83.976472,
              34.397946
            ],
            [
              -83.971522,
              34.401784
            ],
            [
              -83.972002,
              34.405497
            ],
            [
              -83.978398,
              34.411219
            ],
            [
              -83.984818,
              34.411603
            ],
            [
              -83.9829352,
              34.417573
            ],
            [
              -83.979401,
              34.4190379
            ],
            [
              -84.0933845,
              34.4601015
            ],
            [
              -84.105179,
              34.46616
            ],
            [
              -84.0979001,
              34.4657796
            ],
            [
              -84.097617,
              34.4695433
            ],
            [
              -84.1128715,
              34.4723327
            ],
            [
              -84.1911249,
              34.5392212
            ],
            [
              -84.186867,
              34.600185
            ],
            [
              -84.188683,
              34.609253
            ],
            [
              -84.1967915,
              34.6178592
            ],
            [
              -84.2139113,
              34.6101584
            ],
            [
              -84.2187023,
              34.6004968
            ],
            [
              -84.2238186,
              34.5992718
            ],
            [
              -84.2239167,
              34.5969891
            ],
            [
              -84.2547238,
              34.5975243
            ],
            [
              -84.2551582,
              34.5683473
            ],
            [
              -84.2712533,
              34.5706798
            ],
            [
              -84.2758719,
              34.5737724
            ],
            [
              -84.279137,
              34.5725014
            ],
            [
              -84.2789412,
              34.5696629
            ],
            [
              -84.2924481,
              34.5690777
            ],
            [
              -84.2973481,
              34.5752404
            ],
            [
              -84.3071985,
              34.5814521
            ],
            [
              -84.3131499,
              34.5777282
            ],
            [
              -84.3180791,
              34.5788209
            ],
            [
              -84.3204195,
              34.5822685
            ],
            [
              -84.328846,
              34.5836485
            ],
            [
              -84.3366408,
              34.5791968
            ],
            [
              -84.331545,
              34.5725504
            ],
            [
              -84.3374368,
              34.5717401
            ],
            [
              -84.3465125,
              34.5661359
            ]
          ]
        ]
      }
    },
    {
      "type": "Feature",
      "properties": {
        "county": "clayton",
        "name": "Clayton County",
        "center": [
          33.5204959,
          -84.3591713
        ]
      },
      "geometry": {
        "type": "Polygon",
        "coordinates": [
          [
            [
              -84.4585284,
              33.5510211
            ],
            [
              -84.4394971,
              33.5507565
            ],
            [
              -84.434765,
              33.54114
            ],
            [
              -84.433531,
              33.524274
            ],
            [
              -84.420425,
              33.509614
            ],
            [
              -84.420428,
              33.493992
            ],
            [
              -84.409739,
              33.49391
            ],
            [
              -84.396172,
              33.484949
            ],
            [
              -84.387134,
              33.476565
            ],
            [
              -84.386521,
              33.467349
            ],
            [
              -84.381673,
              33.463258
            ],
            [
              -84.38371,
              33.455111
            ],
            [
              -84.38881,
              33.450271
            ],
            [
              -84.38373,
              33.444423
            ],
            [
              -84.392524,
              33.444513
            ],
            [
              -84.3928361,
              33.4367029
            ],
            [
              -84.402242,
              33.436532
            ],
            [
              -84.402315,
              33.420125
            ],
            [
              -84.3939447,
              33.4199568
            ],
            [
              -84.3932021,
              33.4117672
            ],
            [
              -84.388103,
              33.411653
            ],
            [
              -84.384087,
              33.40247
            ],
            [
              -84.388619,
              33.396054
            ],
            [
              -84.394786,
              33.394475
            ],
            [
              -84.394722,
              33.388615
            ],
            [
              -84.389948,
              33.386034
            ],
            [
              -84.386484,
              33.376514
            ],
            [
              -84.396325,
              33.373423
            ],
            [
              -84.39614,
              33.368566
            ],
            [
              -84.39247,
              33.366605
            ],
            [
              -84.395073,
              33.360256
            ],
            [
              -84.388578,
              33.356338
            ],
            [
              -84.388118,
              33.352465
            ],
            [
              -84.3544,
              33.352514
            ],
            [
              -84.353584,
              33.436165
            ],
            [
              -84.3232774,
              33.4361987
            ],
            [
              -84.32342,
              33.4280624
            ],
            [
              -84.30423,
              33.427433
            ],
            [
              -84.304323,
              33.435727
            ],
            [
              -84.29468,
              33.435715
            ],
            [
              -84.294151,
              33.484325
            ],
            [
              -84.283913,
              33.484341
            ],
            [
              -84.28253,
              33.531345
            ],
            [
              -84.292557,
              33.532981
            ],
            [
              -84.292112,
              33.549141
            ],
            [
              -84.2638265,
              33.5488407
            ],
            [
              -84.2632722,
              33.5821234
            ],
            [
              -84.2531758,
              33.5820544
            ],
            [
              -84.253203,
              33.590286
            ],
            [
              -84.243897,
              33.590294
            ],
            [
              -84.243858,
              33.598618
            ],
            [
              -84.253227,
              33.598759
            ],
            [
              -84.253242,
              33.60693
            ],
            [
              -84.26297,
              33.606953
            ],
            [
              -84.262566,
              33.631004
            ],
            [
              -84.272057,
              33.63121
            ],
            [
              -84.271858,
              33.639232
            ],
            [
              -84.2816023,
              33.6392549
            ],
            [
              -84.2813801,
              33.6473107
            ],
            [
              -84.4466376,
              33.6487505
            ],
            [
              -84.4481681,
              33.6407051
            ],
            [
              -84.4528619,
              33.6407061
            ],
            [
              -84.4527236,
              33.6488129
            ],
            [
              -84.4574709,
              33.6488498
            ],
            [
              -84.4585284,
              33.5510211
            ]
          ]
        ]
      }
    },
    {
      "type": "Feature",
      "properties": {
        "county": "henry",
        "name": "Henry County",
        "center": [
          33.4519942,
          -84.1367771
        ]
      },
      "geometry": {
        "type": "Polygon",
        "coordinates": [
          [
            [
              -84.3544,
              33.352514
            ],
            [
              -84.247438,
              33.352621
            ],
            [
              -84.2473696,
              33.3358623
            ],
            [
              -84.1506239,
              33.335648
            ],
            [
              -84.150909,
              33.312982
            ],
            [
              -84.14502,
              33.316534
            ],
            [
              -84.146257,
              33.313961
            ],
            [
              -84.139828,
              33.31292
            ],
            [
              -84.131179,
              33.302291
            ],
            [
              -84.124025,
              33.300074
            ],
            [
              -84.118546,
              33.302422
            ],
            [
              -84.11335,
              33.297703
            ],
            [
              -84.108844,
              33.301285
            ],
            [
              -84.102515,
              33.298105
            ],
            [
              -84.10244,
              33.30209
            ],
            [
              -84.0734644,
              33.3018554
            ],
            [
              -84.0730657,
              33.3180802
            ],
            [
              -84.0536608,
              33.3178941
            ],
            [
              -84.0534393,
              33.3301855
            ],
            [
              -84.0426037,
              33.3300796
            ],
            [
              -84.0425578,
              33.3388042
            ],
            [
              -84.033189,
              33.3388351
            ],
            [
              -84.0327582,
              33.3593955
            ],
            [
              -84.0139745,
              33.3592121
            ],
            [
              -83.9828112,
              33.3903719
            ],
            [
              -83.982813,
              33.3941029
            ],
            [
              -83.9731824,
              33.3941192
            ],
            [
              -83.973116,
              33.3997081
            ],
            [
              -83.9826978,
              33.3996849
            ],
            [
              -83.9826288,
              33.4035904
            ],
            [
              -83.9226175,
              33.4506364
            ],
            [
              -83.931979,
              33.454667
            ],
            [
              -83.93782,
              33.46783
            ],
            [
              -83.947753,
              33.476737
            ],
            [
              -83.946363,
              33.482728
            ],
            [
              -83.949272,
              33.485733
            ],
            [
              -83.955406,
              33.483733
            ],
            [
              -83.969363,
              33.486807
            ],
            [
              -83.973966,
              33.483498
            ],
            [
              -83.976453,
              33.488819
            ],
            [
              -83.98576,
              33.487986
            ],
            [
              -83.991421,
              33.492829
            ],
            [
              -84.012174,
              33.492182
            ],
            [
              -84.015796,
              33.498056
            ],
            [
              -84.025721,
              33.496581
            ],
            [
              -84.02784,
              33.491494
            ],
            [
              -84.037184,
              33.49578
            ],
            [
              -84.030023,
              33.500096
            ],
            [
              -84.035601,
              33.509055
            ],
            [
              -84.043,
              33.509779
            ],
            [
              -84.042947,
              33.51988
            ],
            [
              -84.050647,
              33.516375
            ],
            [
              -84.049153,
              33.511039
            ],
            [
              -84.054431,
              33.514992
            ],
            [
              -84.054885,
              33.519505
            ],
            [
              -84.044416,
              33.526324
            ],
            [
              -84.046673,
              33.530665
            ],
            [
              -84.056286,
              33.526736
            ],
            [
              -84.055841,
              33.530524
            ],
            [
              -84.050859,
              33.530493
            ],
            [
              -84.048578,
              33.538708
            ],
            [
              -84.051685,
              33.542382
            ],
            [
              -84.05959,
              33.540554
            ],
            [
              -84.065723,
              33.54947
            ],
            [
              -84.070082,
              33.547022
            ],
            [
              -84.082062,
              33.55545
            ],
            [
              -84.089887,
              33.554663
            ],
            [
              -84.106823,
              33.566415
            ],
            [
              -84.115344,
              33.566119
            ],
            [
              -84.123303,
              33.561036
            ],
            [
              -84.130879,
              33.564335
            ],
            [
              -84.139347,
              33.574412
            ],
            [
              -84.140105,
              33.580152
            ],
            [
              -84.149708,
              33.586795
            ],
            [
              -84.153808,
              33.597282
            ],
            [
              -84.172118,
              33.621909
            ],
            [
              -84.181584,
              33.629174
            ],
            [
              -84.179452,
              33.632539
            ],
            [
              -84.184143,
              33.646157
            ],
            [
              -84.223952,
              33.646572
            ],
            [
              -84.224235,
              33.630657
            ],
            [
              -84.245453,
              33.63073
            ],
            [
              -84.245771,
              33.646922
            ],
            [
              -84.2813801,
              33.6473107
            ],
            [
              -84.2816023,
              33.6392549
            ],
            [
              -84.271858,
              33.639232
            ],
            [
              -84.272057,
              33.63121
            ],
            [
              -84.262566,
              33.631004
            ],
            [
              -84.26297,
              33.606953
            ],
            [
              -84.253242,
              33.60693
            ],
            [
              -84.253227,
              33.598759
            ],
            [
              -84.243858,
              33.598618
            ],
            [
              -84.243897,
              33.590294
            ],
            [
              -84.253203,
              33.590286
            ],
            [
              -84.2531758,
              33.5820544
            ],
            [
              -84.2632722,
              33.5821234
            ],
            [
              -84.2638265,
              33.5488407
            ],
            [
              -84.292112,
              33.549141
            ],
            [
              -84.292557,
              33.532981
            ],
            [
              -84.28253,
              33.531345
            ],
            [
              -84.283913,
              33.484341
            ],
            [
              -84.294151,
              33.484325
            ],
            [
              -84.29468,
              33.435715
            ],
            [
              -84.304323,
              33.435727
            ],
            [
              -84.30423,
              33.427433
            ],
            [
              -84.32342,
              33.4280624
            ],
            [
              -84.3232774,
              33.4361987
            ],
            [
              -84.353584,
              33.436165
            ],
            [
              -84.3544,
              33.352514
            ]
          ]
        ]
      }
    },
    {
      "type": "Feature",
      "properties": {
        "county": "fayette",
        "name": "Fayette County",
        "center": [
          33.3899269,
          -84.4953763
        ]
      },
      "geometry": {
        "type": "Polygon",
        "coordinates": [
          [
            [
              -84.62722,
              33.440078
            ],
            [
              -84.613944,
              33.402954
            ],
            [
              -84.60912,
              33.400405
            ],
            [
              -84.610183,
              33.397772
            ],
            [
              -84.606656,
              33.395376
            ],
            [
              -84.608834,
              33.393093
            ],
            [
              -84.592797,
              33.379588
            ],
            [
              -84.586192,
              33.358016
            ],
            [
              -84.577008,
              33.358561
            ],
            [
              -84.571275,
              33.348529
            ],
            [
              -84.560513,
              33.340601
            ],
            [
              -84.552199,
              33.341959
            ],
            [
              -84.549108,
              33.338351
            ],
            [
              -84.534449,
              33.335586
            ],
            [
              -84.535148,
              33.331355
            ],
            [
              -84.528184,
              33.326942
            ],
            [
              -84.526503,
              33.321564
            ],
            [
              -84.518243,
              33.318331
            ],
            [
              -84.521907,
              33.313262
            ],
            [
              -84.514679,
              33.303675
            ],
            [
              -84.518615,
              33.297016
            ],
            [
              -84.517483,
              33.293163
            ],
            [
              -84.512578,
              33.280859
            ],
            [
              -84.504429,
              33.280973
            ],
            [
              -84.50746,
              33.278813
            ],
            [
              -84.506716,
              33.275227
            ],
            [
              -84.50015,
              33.265037
            ],
            [
              -84.502168,
              33.261417
            ],
            [
              -84.497527,
              33.257422
            ],
            [
              -84.432907,
              33.2565
            ],
            [
              -84.430796,
              33.27582
            ],
            [
              -84.422889,
              33.286451
            ],
            [
              -84.419105,
              33.287267
            ],
            [
              -84.419098,
              33.293552
            ],
            [
              -84.408592,
              33.294055
            ],
            [
              -84.402725,
              33.305439
            ],
            [
              -84.397034,
              33.301572
            ],
            [
              -84.392807,
              33.308064
            ],
            [
              -84.393257,
              33.31686
            ],
            [
              -84.38884,
              33.315385
            ],
            [
              -84.384079,
              33.319468
            ],
            [
              -84.384827,
              33.327377
            ],
            [
              -84.390526,
              33.334381
            ],
            [
              -84.385957,
              33.34125
            ],
            [
              -84.383408,
              33.338966
            ],
            [
              -84.382774,
              33.343131
            ],
            [
              -84.388578,
              33.356338
            ],
            [
              -84.395073,
              33.360256
            ],
            [
              -84.39247,
              33.366605
            ],
            [
              -84.39614,
              33.368566
            ],
            [
              -84.396347,
              33.373334
            ],
            [
              -84.386554,
              33.375957
            ],
            [
              -84.389948,
              33.386034
            ],
            [
              -84.394722,
              33.388615
            ],
            [
              -84.394809,
              33.394368
            ],
            [
              -84.388619,
              33.396054
            ],
            [
              -84.384087,
              33.40247
            ],
            [
              -84.388103,
              33.411653
            ],
            [
              -84.3932021,
              33.4117672
            ],
            [
              -84.3939447,
              33.4199568
            ],
            [
              -84.402315,
              33.420125
            ],
            [
              -84.4024456,
              33.4261718
            ],
            [
              -84.402242,
              33.436532
            ],
            [
              -84.3928361,
              33.4367029
            ],
            [
              -84.392524,
              33.444513
            ],
            [
              -84.38373,
              33.444423
            ],
            [
              -84.38881,
              33.450271
            ],
            [
              -84.38371,
              33.455111
            ],
            [
              -84.381673,
              33.463258
            ],
            [
              -84.386521,
              33.467349
            ],
            [
              -84.387134,
              33.476565
            ],
            [
              -84.396172,
              33.484949
            ],
            [
              -84.409739,
              33.49391
            ],
            [
              -84.420428,
              33.493992
            ],
            [
              -84.420425,
              33.509614
            ],
            [
              -84.433531,
              33.524274
            ],
            [
              -84.434765,
              33.54114
            ],
            [
              -84.4394971,
              33.5507565
            ],
            [
              -84.472827,
              33.548112
            ],
            [
              -84.594739,
              33.518704
            ],
            [
              -84.598118,
              33.513663
            ],
            [
              -84.606768,
              33.509739
            ],
            [
              -84.618099,
              33.482991
            ],
            [
              -84.62556,
              33.477168
            ],
            [
              -84.623296,
              33.468282
            ],
            [
              -84.626585,
              33.46464
            ],
            [
              -84.62675,
              33.451045
            ],
            [
              -84.624331,
              33.448928
            ],
            [
              -84.62722,
              33.440078
            ]
          ]
        ]
      }
    },
    {
      "type": "Feature",
      "properties": {
        "county": "coweta",
        "name": "Coweta County",
        "center": [
          33.3500656,
          -84.7545734
        ]
      },
      "geometry": {
        "type": "Polygon",
        "coordinates": [
          [
            [
              -85.0154116,
              33.425609
            ],
            [
              -84.958646,
              33.277053
            ],
            [
              -84.958583,
              33.282365
            ],
            [
              -84.948815,
              33.282277
            ],
            [
              -84.9489001,
              33.2656315
            ],
            [
              -84.954608,
              33.2656654
            ],
            [
              -84.9388562,
              33.2246858
            ],
            [
              -84.862135,
              33.223858
            ],
            [
              -84.8622821,
              33.2075908
            ],
            [
              -84.871855,
              33.207537
            ],
            [
              -84.869904,
              33.195662
            ],
            [
              -84.862382,
              33.199143
            ],
            [
              -84.862359,
              33.191173
            ],
            [
              -84.852304,
              33.191043
            ],
            [
              -84.8522527,
              33.2236439
            ],
            [
              -84.7162353,
              33.2229546
            ],
            [
              -84.7161373,
              33.2315029
            ],
            [
              -84.6930539,
              33.2317515
            ],
            [
              -84.6931948,
              33.2229236
            ],
            [
              -84.6812578,
              33.2228212
            ],
            [
              -84.6811755,
              33.2273563
            ],
            [
              -84.6745483,
              33.227214
            ],
            [
              -84.6744113,
              33.2307791
            ],
            [
              -84.6514105,
              33.2304937
            ],
            [
              -84.6514802,
              33.2224606
            ],
            [
              -84.502352,
              33.221055
            ],
            [
              -84.506559,
              33.227157
            ],
            [
              -84.50029,
              33.233444
            ],
            [
              -84.50407,
              33.239136
            ],
            [
              -84.507279,
              33.237979
            ],
            [
              -84.509081,
              33.244977
            ],
            [
              -84.507861,
              33.248711
            ],
            [
              -84.498246,
              33.25002
            ],
            [
              -84.497059,
              33.256404
            ],
            [
              -84.502168,
              33.261417
            ],
            [
              -84.50015,
              33.265037
            ],
            [
              -84.506716,
              33.275227
            ],
            [
              -84.50746,
              33.278813
            ],
            [
              -84.504429,
              33.280973
            ],
            [
              -84.512578,
              33.280859
            ],
            [
              -84.517483,
              33.293163
            ],
            [
              -84.518615,
              33.297016
            ],
            [
              -84.514679,
              33.303675
            ],
            [
              -84.521907,
              33.313262
            ],
            [
              -84.518146,
              33.318178
            ],
            [
              -84.526503,
              33.321564
            ],
            [
              -84.528184,
              33.326942
            ],
            [
              -84.535148,
              33.331355
            ],
            [
              -84.534449,
              33.335586
            ],
            [
              -84.549108,
              33.338351
            ],
            [
              -84.552199,
              33.341959
            ],
            [
              -84.560513,
              33.340601
            ],
            [
              -84.571275,
              33.348529
            ],
            [
              -84.577008,
              33.358561
            ],
            [
              -84.586124,
              33.357947
            ],
            [
              -84.592797,
              33.379588
            ],
            [
              -84.608834,
              33.393093
            ],
            [
              -84.606656,
              33.395376
            ],
            [
              -84.610183,
              33.397772
            ],
            [
              -84.60912,
              33.400405
            ],
            [
              -84.613944,
              33.402954
            ],
            [
              -84.627204,
              33.43999
            ],
            [
              -84.624331,
              33.448928
            ],
            [
              -84.627119,
              33.460397
            ],
            [
              -84.623296,
              33.468282
            ],
            [
              -84.62556,
              33.477168
            ],
            [
              -84.618099,
              33.482991
            ],
            [
              -84.60954,
              33.502511
            ],
            [
              -84.620879,
              33.503291
            ],
            [
              -84.621031,
              33.510713
            ],
            [
              -84.8509759,
              33.5112155
            ],
            [
              -84.85529,
              33.495947
            ],
            [
              -84.866614,
              33.49174
            ],
            [
              -84.876667,
              33.492074
            ],
            [
              -84.902467,
              33.475848
            ],
            [
              -84.908535,
              33.469802
            ],
            [
              -84.909346,
              33.459533
            ],
            [
              -84.919195,
              33.455651
            ],
            [
              -84.920471,
              33.446044
            ],
            [
              -84.93193,
              33.442152
            ],
            [
              -84.935378,
              33.437421
            ],
            [
              -84.954457,
              33.439318
            ],
            [
              -84.983874,
              33.457335
            ],
            [
              -84.988971,
              33.453043
            ],
            [
              -84.985608,
              33.442137
            ],
            [
              -85.012461,
              33.430542
            ],
            [
              -85.0154116,
              33.425609
            ]
          ]
        ]
      }
    },
    {
      "type": "Feature",
      "properties": {
        "county": "douglas",
        "name": "Douglas County",
        "center": [
          33.6995565,
          -84.7622973
        ]
      },
      "geometry": {
        "type": "Polygon",
        "coordinates": [
          [
            [
              -84.911782,
              33.7223469
            ],
            [
              -84.9024097,
              33.7221663
            ],
            [
              -84.9058309,
              33.5734781
            ],
            [
              -84.8301821,
              33.5738028
            ],
            [
              -84.8301465,
              33.5766272
            ],
            [
              -84.8243871,
              33.5766529
            ],
            [
              -84.8244053,
              33.5737969
            ],
            [
              -84.8092548,
              33.5738921
            ],
            [
              -84.804987,
              33.587309
            ],
            [
              -84.775591,
              33.609662
            ],
            [
              -84.763097,
              33.614211
            ],
            [
              -84.752735,
              33.63021
            ],
            [
              -84.748835,
              33.63181
            ],
            [
              -84.741775,
              33.623763
            ],
            [
              -84.737715,
              33.623611
            ],
            [
              -84.730034,
              33.63651
            ],
            [
              -84.710534,
              33.646409
            ],
            [
              -84.657316,
              33.658633
            ],
            [
              -84.651933,
              33.667909
            ],
            [
              -84.652486,
              33.683905
            ],
            [
              -84.648379,
              33.685993
            ],
            [
              -84.640505,
              33.68395
            ],
            [
              -84.632138,
              33.688373
            ],
            [
              -84.632065,
              33.700614
            ],
            [
              -84.607479,
              33.713274
            ],
            [
              -84.599452,
              33.726255
            ],
            [
              -84.586092,
              33.729449
            ],
            [
              -84.5790372,
              33.742886
            ],
            [
              -84.6208211,
              33.8046671
            ],
            [
              -84.724139,
              33.80617
            ],
            [
              -84.7244623,
              33.7876196
            ],
            [
              -84.7499669,
              33.7860184
            ],
            [
              -84.7500101,
              33.7802646
            ],
            [
              -84.8588518,
              33.7736261
            ],
            [
              -84.8826958,
              33.7737449
            ],
            [
              -84.9019541,
              33.7803178
            ],
            [
              -84.902331,
              33.730599
            ],
            [
              -84.9116377,
              33.7306978
            ],
            [
              -84.911782,
              33.7223469
            ]
          ]
        ]
      }
    },
    {
      "type": "Feature",
      "properties": {
        "county": "rockdale",
        "name": "Rockdale County",
        "center": [
          33.6430283,
          -84.0322064
        ]
      },
      "geometry": {
        "type": "Polygon",
        "coordinates": [
          [
            [
              -84.184148,
              33.6434344
            ],
            [
              -84.179452,
              33.632539
            ],
            [
              -84.181542,
              33.629111
            ],
            [
              -84.172118,
              33.621909
            ],
            [
              -84.153808,
              33.597282
            ],
            [
              -84.149708,
              33.586795
            ],
            [
              -84.140105,
              33.580152
            ],
            [
              -84.139347,
              33.574412
            ],
            [
              -84.130879,
              33.564335
            ],
            [
              -84.123303,
              33.561036
            ],
            [
              -84.115344,
              33.566119
            ],
            [
              -84.106823,
              33.566415
            ],
            [
              -84.089887,
              33.554663
            ],
            [
              -84.082062,
              33.55545
            ],
            [
              -84.070082,
              33.547022
            ],
            [
              -84.065723,
              33.54947
            ],
            [
              -84.05959,
              33.540554
            ],
            [
              -84.052756,
              33.542726
            ],
            [
              -84.04859,
              33.538798
            ],
            [
              -84.050934,
              33.530324
            ],
            [
              -84.055841,
              33.530524
            ],
            [
              -84.056134,
              33.526499
            ],
            [
              -84.046565,
              33.530661
            ],
            [
              -84.044478,
              33.525855
            ],
            [
              -84.0106853,
              33.5633549
            ],
            [
              -84.010651,
              33.554939
            ],
            [
              -84.003278,
              33.554875
            ],
            [
              -84.003372,
              33.563529
            ],
            [
              -84.010482,
              33.5635783
            ],
            [
              -83.930863,
              33.651823
            ],
            [
              -83.923091,
              33.673854
            ],
            [
              -83.92463,
              33.680887
            ],
            [
              -83.918123,
              33.68949
            ],
            [
              -83.92524,
              33.710183
            ],
            [
              -83.917593,
              33.708319
            ],
            [
              -83.913247,
              33.712583
            ],
            [
              -83.918698,
              33.723764
            ],
            [
              -83.914823,
              33.744203
            ],
            [
              -83.9822697,
              33.78616
            ],
            [
              -84.056614,
              33.726608
            ],
            [
              -84.115791,
              33.614666
            ],
            [
              -84.115524,
              33.618889
            ],
            [
              -84.128011,
              33.626767
            ],
            [
              -84.12922,
              33.63137
            ],
            [
              -84.14049,
              33.631474
            ],
            [
              -84.13832,
              33.637669
            ],
            [
              -84.151155,
              33.638773
            ],
            [
              -84.15447,
              33.645748
            ],
            [
              -84.158612,
              33.644481
            ],
            [
              -84.161589,
              33.63775
            ],
            [
              -84.173126,
              33.64097
            ],
            [
              -84.170176,
              33.645903
            ],
            [
              -84.184143,
              33.646157
            ],
            [
              -84.184148,
              33.6434344
            ]
          ]
        ]
      }
    }
  ]
}
